ONEWEB-0647             
1 56079U 23043AK  25221.51824216  .00000062  00000+0  13030-3 0  9997
2 56079  87.9088 321.3987 0002125  96.3286 263.8086 13.15550423115443
ONEWEB-0651             
1 56080U 23043AL  25221.51349604  .00000163  00000+0  39875-3 0  9999
2 56080  87.9091 321.3892 0002130 105.3776 254.7590 13.15550493116644
ONEWEB-0718             
1 56081U 23043AM  25221.58481478  .00000129  00000+0  30827-3 0  9993
2 56081  87.9090 321.3581 0001339 105.1138 255.0140 13.15548470115465
ONEWEB-0561             
1 56710U 23068A   25221.61009113  .00000069  00000+0  13860-3 0  9996
2 56710  87.9290 336.5422 0002414  97.9343 262.2064 13.20771913108372
ONEWEB-0668             
1 56711U 23068B   25221.56506635  .00000047  00000+0  89859-4 0  9990
2 56711  87.9044 290.8729 0001567 109.2160 250.9140 13.16596563110771
ONEWEB-0676             
1 56712U 23068C   25221.54531349 -.00001186  00000+0 -31367-2 0  9995
2 56712  87.9036 290.8991 0002446  97.8423 262.2985 13.16584173110693
ONEWEB-0677             
1 56713U 23068D   25221.59905584  .00000051  00000+0  94532-4 0  9990
2 56713  87.9290 336.5210 0002098 105.4620 254.6745 13.20772612108672
ONEWEB-0678             
1 56714U 23068E   25221.55310358  .00000780  00000+0  20370-2 0  9992
2 56714  87.9089 321.3360 0002096  90.7986 269.3385 13.15546932108318
ONEWEB-0679             
1 56715U 23068F   25221.59042629 -.00000051  00000+0 -16645-3 0  9994
2 56715  87.9037 290.8824 0002134 111.6430 248.4928 13.16592446110728
ONEWEB-0680             
1 56716U 23068G   25221.53086901  .00000103  00000+0  21784-3 0  9996
2 56716  87.9259 306.1459 0001664 116.0023 244.1282 13.21826995109925
ONEWEB-0681             
1 56717U 23068H   25221.51380551  .00000012  00000+0 -34050-5 0  9995
2 56717  87.9265 306.1670 0002905 107.9723 252.1729 13.23384976109917
ONEWEB-0682             
1 56718U 23068J   25221.57925660  .00000131  00000+0  31290-3 0  9990
2 56718  87.9072 321.3562 0001717 115.3367 244.7942 13.15548915108481
ONEWEB-0683             
1 56719U 23068K   25221.52458229 -.00000063  00000+0 -20086-3 0  9995
2 56719  87.9087 321.3414 0001726 106.8875 253.2444 13.15546777108445
ONEWEB-0684             
1 56720U 23068L   25221.53250284 -.00000055  00000+0 -17949-3 0  9994
2 56720  87.9061 321.3453 0002124  58.0747 302.0590 13.15546784108275
ONEWEB-0686             
1 56721U 23068M   25221.58011984  .00000072  00000+0  15538-3 0  9991
2 56721  87.9031 290.9170 0001672  97.0025 263.1296 13.16596958110710
ONEWEB-0694             
1 56722U 23068N   25221.47090584  .00000009  00000+0 -10585-4 0  9992
2 56722  87.9043 290.8631 0001761 109.7901 250.3420 13.16593559110753
ONEWEB-0696             
1 56723U 23068P   25221.56578400  .00000128  00000+0  30563-3 0  9999
2 56723  87.9086 321.3863 0002055  91.2818 268.8548 13.15547236109097
