[{"OBJECT_NAME":"ONEWEB-0647","OBJECT_ID":"2023-043AK","EPOCH":"2025-08-09T12:26:16.122624","MEAN_MOTION":13.15550423,"ECCENTRICITY":0.0002125,"INCLINATION":87.9088,"RA_OF_ASC_NODE":321.3987,"ARG_OF_PERICENTER":96.3286,"MEAN_ANOMALY":263.8086,"EPHEMERIS_TYPE":0,"CLASSIFICATION_TYPE":"U","NORAD_CAT_ID":56079,"ELEMENT_SET_NO":999,"REV_AT_EPOCH":11544,"BSTAR":0.0001303,"MEAN_MOTION_DOT":6.2e-7,"MEAN_MOTION_DDOT":0},{"OBJECT_NAME":"ONEWEB-0651","OBJECT_ID":"2023-043AL","EPOCH":"2025-08-09T12:19:26.057856","MEAN_MOTION":13.15550493,"ECCENTRICITY":0.000213,"INCLINATION":87.9091,"RA_OF_ASC_NODE":321.3892,"ARG_OF_PERICENTER":105.3776,"MEAN_ANOMALY":254.759,"EPHEMERIS_TYPE":0,"CLASSIFICATION_TYPE":"U","NORAD_CAT_ID":56080,"ELEMENT_SET_NO":999,"REV_AT_EPOCH":11664,"BSTAR":0.00039875,"MEAN_MOTION_DOT":1.63e-6,"MEAN_MOTION_DDOT":0},{"OBJECT_NAME":"ONEWEB-0718","OBJECT_ID":"2023-043AM","EPOCH":"2025-08-09T14:02:07.996992","MEAN_MOTION":13.1554847,"ECCENTRICITY":0.0001339,"INCLINATION":87.909,"RA_OF_ASC_NODE":321.3581,"ARG_OF_PERICENTER":105.1138,"MEAN_ANOMALY":255.014,"EPHEMERIS_TYPE":0,"CLASSIFICATION_TYPE":"U","NORAD_CAT_ID":56081,"ELEMENT_SET_NO":999,"REV_AT_EPOCH":11546,"BSTAR":0.00030827,"MEAN_MOTION_DOT":1.29e-6,"MEAN_MOTION_DDOT":0},{"OBJECT_NAME":"ONEWEB-0561","OBJECT_ID":"2023-068A","EPOCH":"2025-08-09T14:38:31.873632","MEAN_MOTION":13.20771913,"ECCENTRICITY":0.0002414,"INCLINATION":87.929,"RA_OF_ASC_NODE":336.5422,"ARG_OF_PERICENTER":97.9343,"MEAN_ANOMALY":262.2064,"EPHEMERIS_TYPE":0,"CLASSIFICATION_TYPE":"U","NORAD_CAT_ID":56710,"ELEMENT_SET_NO":999,"REV_AT_EPOCH":10837,"BSTAR":0.0001386,"MEAN_MOTION_DOT":6.9e-7,"MEAN_MOTION_DDOT":0},{"OBJECT_NAME":"ONEWEB-0668","OBJECT_ID":"2023-068B","EPOCH":"2025-08-09T13:33:41.732640","MEAN_MOTION":13.16596563,"ECCENTRICITY":0.0001567,"INCLINATION":87.9044,"RA_OF_ASC_NODE":290.8729,"ARG_OF_PERICENTER":109.216,"MEAN_ANOMALY":250.914,"EPHEMERIS_TYPE":0,"CLASSIFICATION_TYPE":"U","NORAD_CAT_ID":56711,"ELEMENT_SET_NO":999,"REV_AT_EPOCH":11077,"BSTAR":8.9859e-5,"MEAN_MOTION_DOT":4.7e-7,"MEAN_MOTION_DDOT":0},{"OBJECT_NAME":"ONEWEB-0676","OBJECT_ID":"2023-068C","EPOCH":"2025-08-09T13:05:15.085536","MEAN_MOTION":13.16584173,"ECCENTRICITY":0.0002446,"INCLINATION":87.9036,"RA_OF_ASC_NODE":290.8991,"ARG_OF_PERICENTER":97.8423,"MEAN_ANOMALY":262.2985,"EPHEMERIS_TYPE":0,"CLASSIFICATION_TYPE":"U","NORAD_CAT_ID":56712,"ELEMENT_SET_NO":999,"REV_AT_EPOCH":11069,"BSTAR":-0.0031367,"MEAN_MOTION_DOT":-1.186e-5,"MEAN_MOTION_DDOT":0},{"OBJECT_NAME":"ONEWEB-0677","OBJECT_ID":"2023-068D","EPOCH":"2025-08-09T14:22:38.424576","MEAN_MOTION":13.20772612,"ECCENTRICITY":0.0002098,"INCLINATION":87.929,"RA_OF_ASC_NODE":336.521,"ARG_OF_PERICENTER":105.462,"MEAN_ANOMALY":254.6745,"EPHEMERIS_TYPE":0,"CLASSIFICATION_TYPE":"U","NORAD_CAT_ID":56713,"ELEMENT_SET_NO":999,"REV_AT_EPOCH":10867,"BSTAR":9.4532e-5,"MEAN_MOTION_DOT":5.1e-7,"MEAN_MOTION_DDOT":0},{"OBJECT_NAME":"ONEWEB-0678","OBJECT_ID":"2023-068E","EPOCH":"2025-08-09T13:16:28.149312","MEAN_MOTION":13.15546932,"ECCENTRICITY":0.0002096,"INCLINATION":87.9089,"RA_OF_ASC_NODE":321.336,"ARG_OF_PERICENTER":90.7986,"MEAN_ANOMALY":269.3385,"EPHEMERIS_TYPE":0,"CLASSIFICATION_TYPE":"U","NORAD_CAT_ID":56714,"ELEMENT_SET_NO":999,"REV_AT_EPOCH":10831,"BSTAR":0.002037,"MEAN_MOTION_DOT":7.8e-6,"MEAN_MOTION_DDOT":0},{"OBJECT_NAME":"ONEWEB-0679","OBJECT_ID":"2023-068F","EPOCH":"2025-08-09T14:10:12.831456","MEAN_MOTION":13.16592446,"ECCENTRICITY":0.0002134,"INCLINATION":87.9037,"RA_OF_ASC_NODE":290.8824,"ARG_OF_PERICENTER":111.643,"MEAN_ANOMALY":248.4928,"EPHEMERIS_TYPE":0,"CLASSIFICATION_TYPE":"U","NORAD_CAT_ID":56715,"ELEMENT_SET_NO":999,"REV_AT_EPOCH":11072,"BSTAR":-0.00016645,"MEAN_MOTION_DOT":-5.1e-7,"MEAN_MOTION_DDOT":0},{"OBJECT_NAME":"ONEWEB-0680","OBJECT_ID":"2023-068G","EPOCH":"2025-08-09T12:44:27.082464","MEAN_MOTION":13.21826995,"ECCENTRICITY":0.0001664,"INCLINATION":87.9259,"RA_OF_ASC_NODE":306.1459,"ARG_OF_PERICENTER":116.0023,"MEAN_ANOMALY":244.1282,"EPHEMERIS_TYPE":0,"CLASSIFICATION_TYPE":"U","NORAD_CAT_ID":56716,"ELEMENT_SET_NO":999,"REV_AT_EPOCH":10992,"BSTAR":0.00021784,"MEAN_MOTION_DOT":1.03e-6,"MEAN_MOTION_DDOT":0},{"OBJECT_NAME":"ONEWEB-0681","OBJECT_ID":"2023-068H","EPOCH":"2025-08-09T12:19:52.796064","MEAN_MOTION":13.23384976,"ECCENTRICITY":0.0002905,"INCLINATION":87.9265,"RA_OF_ASC_NODE":306.167,"ARG_OF_PERICENTER":107.9723,"MEAN_ANOMALY":252.1729,"EPHEMERIS_TYPE":0,"CLASSIFICATION_TYPE":"U","NORAD_CAT_ID":56717,"ELEMENT_SET_NO":999,"REV_AT_EPOCH":10991,"BSTAR":-3.405e-6,"MEAN_MOTION_DOT":1.2e-7,"MEAN_MOTION_DDOT":0},{"OBJECT_NAME":"ONEWEB-0682","OBJECT_ID":"2023-068J","EPOCH":"2025-08-09T13:54:07.770240","MEAN_MOTION":13.15548915,"ECCENTRICITY":0.0001717,"INCLINATION":87.9072,"RA_OF_ASC_NODE":321.3562,"ARG_OF_PERICENTER":115.3367,"MEAN_ANOMALY":244.7942,"EPHEMERIS_TYPE":0,"CLASSIFICATION_TYPE":"U","NORAD_CAT_ID":56718,"ELEMENT_SET_NO":999,"REV_AT_EPOCH":10848,"BSTAR":0.0003129,"MEAN_MOTION_DOT":1.31e-6,"MEAN_MOTION_DDOT":0},{"OBJECT_NAME":"ONEWEB-0683","OBJECT_ID":"2023-068K","EPOCH":"2025-08-09T12:35:23.909856","MEAN_MOTION":13.15546777,"ECCENTRICITY":0.0001726,"INCLINATION":87.9087,"RA_OF_ASC_NODE":321.3414,"ARG_OF_PERICENTER":106.8875,"MEAN_ANOMALY":253.2444,"EPHEMERIS_TYPE":0,"CLASSIFICATION_TYPE":"U","NORAD_CAT_ID":56719,"ELEMENT_SET_NO":999,"REV_AT_EPOCH":10844,"BSTAR":-0.00020086,"MEAN_MOTION_DOT":-6.3e-7,"MEAN_MOTION_DDOT":0},{"OBJECT_NAME":"ONEWEB-0684","OBJECT_ID":"2023-068L","EPOCH":"2025-08-09T12:46:48.245376","MEAN_MOTION":13.15546784,"ECCENTRICITY":0.0002124,"INCLINATION":87.9061,"RA_OF_ASC_NODE":321.3453,"ARG_OF_PERICENTER":58.0747,"MEAN_ANOMALY":302.059,"EPHEMERIS_TYPE":0,"CLASSIFICATION_TYPE":"U","NORAD_CAT_ID":56720,"ELEMENT_SET_NO":999,"REV_AT_EPOCH":10827,"BSTAR":-0.00017949,"MEAN_MOTION_DOT":-5.5e-7,"MEAN_MOTION_DDOT":0},{"OBJECT_NAME":"ONEWEB-0686","OBJECT_ID":"2023-068M","EPOCH":"2025-08-09T13:55:22.354176","MEAN_MOTION":13.16596958,"ECCENTRICITY":0.0001672,"INCLINATION":87.9031,"RA_OF_ASC_NODE":290.917,"ARG_OF_PERICENTER":97.0025,"MEAN_ANOMALY":263.1296,"EPHEMERIS_TYPE":0,"CLASSIFICATION_TYPE":"U","NORAD_CAT_ID":56721,"ELEMENT_SET_NO":999,"REV_AT_EPOCH":11071,"BSTAR":0.00015538,"MEAN_MOTION_DOT":7.2e-7,"MEAN_MOTION_DDOT":0},{"OBJECT_NAME":"ONEWEB-0694","OBJECT_ID":"2023-068N","EPOCH":"2025-08-09T11:18:06.264576","MEAN_MOTION":13.16593559,"ECCENTRICITY":0.0001761,"INCLINATION":87.9043,"RA_OF_ASC_NODE":290.8631,"ARG_OF_PERICENTER":109.7901,"MEAN_ANOMALY":250.342,"EPHEMERIS_TYPE":0,"CLASSIFICATION_TYPE":"U","NORAD_CAT_ID":56722,"ELEMENT_SET_NO":999,"REV_AT_EPOCH":11075,"BSTAR":-1.0585e-5,"MEAN_MOTION_DOT":9.0e-8,"MEAN_MOTION_DDOT":0},{"OBJECT_NAME":"ONEWEB-0696","OBJECT_ID":"2023-068P","EPOCH":"2025-08-09T13:34:43.737600","MEAN_MOTION":13.15547236,"ECCENTRICITY":0.0002055,"INCLINATION":87.9086,"RA_OF_ASC_NODE":321.3863,"ARG_OF_PERICENTER":91.2818,"MEAN_ANOMALY":268.8548,"EPHEMERIS_TYPE":0,"CLASSIFICATION_TYPE":"U","NORAD_CAT_ID":56723,"ELEMENT_SET_NO":999,"REV_AT_EPOCH":10909,"BSTAR":0.00030563,"MEAN_MOTION_DOT":1.28e-6,"MEAN_MOTION_DDOT":0}]
